[{"OBJECT_NAME":"STARLINK-30399","OBJECT_ID":"2023-148S","EPOCH":"2026-03-09T04:14:08.879424","MEAN_MOTION":15.30189213,"ECCENTRICITY":0.00013452,"INCLINATION":53.1624,"RA_OF_ASC_NODE":26.6571,"ARG_OF_PERICENTER":108.3132,"MEAN_ANOMALY":251.8015,"EPHEMERIS_TYPE":0,"CLASSIFICATION_TYPE":"U","NORAD_CAT_ID":57951,"ELEMENT_SET_NO":999,"REV_AT_EPOCH":13834,"BSTAR":-2.3928317e-5,"MEAN_MOTION_DOT":-1.068e-5,"MEAN_MOTION_DDOT":0},{"OBJECT_NAME":"SPACEMOBILE-005 DEB","OBJECT_ID":"2024-163K","EPOCH":"2026-03-09T07:33:15.902496","MEAN_MOTION":15.31481997,"ECCENTRICITY":0.00072885,"INCLINATION":52.9762,"RA_OF_ASC_NODE":31.7924,"ARG_OF_PERICENTER":175.8731,"MEAN_ANOMALY":184.2329,"EPHEMERIS_TYPE":0,"CLASSIFICATION_TYPE":"U","NORAD_CAT_ID":62373,"ELEMENT_SET_NO":999,"REV_AT_EPOCH":8280,"BSTAR":0.00063853778,"MEAN_MOTION_DOT":0.00019381,"MEAN_MOTION_DDOT":0}]
